CZ-2C R/B               
1 54039U 22132E   26036.94851470  .00046646  00000+0  59184-3 0  9991
2 54039  97.2959  39.3746 0017797 200.4319 159.6228 15.59113050185429
GSLV R/B                
1 54149U 22138AN  26036.89486010  .00004785  00000+0  41715-3 0  9996
2 54149  87.3863 177.0016 0019306 266.8043  93.0979 14.96529532179178
XRISM                   
1 57800U 23137A   26036.54218960  .00009716  00000+0  55989-3 0  9999
2 57800  31.0019 131.5250 0007999  77.5176 282.6357 15.11094649132920
ACS3                    
1 59588U 24077B   26036.87218591  .00021436  00000+0  17746-1 0  9994
2 59588  97.2249 345.1363 0045457 177.6115 182.5273 13.88282441 89789
SZ-21 MODULE            
1 66515U 25246C   26036.38462474  .00044396  00000+0  42095-3 0  9995
2 66515  41.4761  41.8476 0003080 276.8900  83.1590 15.66107693 13005
